{
  "type": "FeatureCollection",
  "features": [
    {
      "type": "Feature",
      "properties": {
        "norad_id": 30360,
        "name": "FENGYUN 1C DEB",
        "group": "fengyun-1c-debris",
        "lat": -76.08928928128415,
        "lon": -164.72586126182512,
        "alt_km": 816.8386549837296,
        "timestamp": "2025-12-10T04:57:29.894237+00:00",
        "meta_object_name": "FENGYUN 1C DEB",
        "meta_object_id": "1999-025ABX",
        "meta_epoch": "2025-12-09T16:40:48.006048",
        "meta_mean_motion": 14.26466808,
        "meta_eccentricity": 0.0031484,
        "meta_inclination": 98.7647,
        "meta_ra_of_asc_node": 53.2905,
        "meta_arg_of_pericenter": 155.0833,
        "meta_mean_anomaly": 357.9968,
        "meta_ephemeris_type": 0,
        "meta_classification_type": "U",
        "meta_norad_cat_id": 30360,
        "meta_element_set_no": 999,
        "meta_rev_at_epoch": 97381,
        "meta_bstar": 0.0024998,
        "meta_mean_motion_dot": 6.011e-05,
        "meta_mean_motion_ddot": 0,
        "tle_line1": "1 30360U 99025ABX 25343.69500007  .00006011  00000+0  24998-2 0  9992",
        "tle_line2": "2 30360  98.7647  53.2905 0031484 155.0833 357.9968 14.26466808973814"
      },
      "geometry": {
        "type": "Point",
        "coordinates": [
          -164.72586126182512,
          -76.08928928128415
        ]
      }
    },
    {
      "type": "Feature",
      "properties": {
        "norad_id": 30361,
        "name": "FENGYUN 1C DEB",
        "group": "fengyun-1c-debris",
        "lat": 9.378291681532097,
        "lon": 18.765689434588584,
        "alt_km": 767.6205251787387,
        "timestamp": "2025-12-10T04:57:29.894261+00:00",
        "meta_object_name": "FENGYUN 1C DEB",
        "meta_object_id": "1999-025ABY",
        "meta_epoch": "2025-12-09T13:45:05.649984",
        "meta_mean_motion": 14.25335098,
        "meta_eccentricity": 0.0065403,
        "meta_inclination": 98.5689,
        "meta_ra_of_asc_node": 19.5737,
        "meta_arg_of_pericenter": 39.9967,
        "meta_mean_anomaly": 320.6003,
        "meta_ephemeris_type": 0,
        "meta_classification_type": "U",
        "meta_norad_cat_id": 30361,
        "meta_element_set_no": 999,
        "meta_rev_at_epoch": 97571,
        "meta_bstar": 0.0013453,
        "meta_mean_motion_dot": 3.199e-05,
        "meta_mean_motion_ddot": 0,
        "tle_line1": "1 30361U 99025ABY 25343.57298206  .00003199  00000+0  13453-2 0  9993",
        "tle_line2": "2 30361  98.5689  19.5737 0065403  39.9967 320.6003 14.25335098975716"
      },
      "geometry": {
        "type": "Point",
        "coordinates": [
          18.765689434588584,
          9.378291681532097
        ]
      }
    },
    {
      "type": "Feature",
      "properties": {
        "norad_id": 30362,
        "name": "FENGYUN 1C DEB",
        "group": "fengyun-1c-debris",
        "lat": 40.32203573371238,
        "lon": 94.75972364594678,
        "alt_km": 908.9782923744324,
        "timestamp": "2025-12-10T04:57:29.894272+00:00",
        "meta_object_name": "FENGYUN 1C DEB",
        "meta_object_id": "1999-025ABZ",
        "meta_epoch": "2025-12-09T18:05:55.326048",
        "meta_mean_motion": 14.11782288,
        "meta_eccentricity": 0.0095908,
        "meta_inclination": 99.048,
        "meta_ra_of_asc_node": 266.531,
        "meta_arg_of_pericenter": 351.775,
        "meta_mean_anomaly": 8.1844,
        "meta_ephemeris_type": 0,
        "meta_classification_type": "U",
        "meta_norad_cat_id": 30362,
        "meta_element_set_no": 999,
        "meta_rev_at_epoch": 96126,
        "meta_bstar": 0.00423,
        "meta_mean_motion_dot": 8.015e-05,
        "meta_mean_motion_ddot": 0,
        "tle_line1": "1 30362U 99025ABZ 25343.75411257  .00008015  00000+0  42300-2 0  9992",
        "tle_line2": "2 30362  99.0480 266.5310 0095908 351.7750   8.1844 14.11782288961269"
      },
      "geometry": {
        "type": "Point",
        "coordinates": [
          94.75972364594678,
          40.32203573371238
        ]
      }
    },
    {
      "type": "Feature",
      "properties": {
        "norad_id": 30363,
        "name": "FENGYUN 1C DEB",
        "group": "fengyun-1c-debris",
        "lat": -14.740977162699187,
        "lon": 57.70326207376075,
        "alt_km": 812.8929538612501,
        "timestamp": "2025-12-10T04:57:29.894282+00:00",
        "meta_object_name": "FENGYUN 1C DEB",
        "meta_object_id": "1999-025ACA",
        "meta_epoch": "2025-12-09T15:28:09.507936",
        "meta_mean_motion": 14.16849111,
        "meta_eccentricity": 0.0079456,
        "meta_inclination": 99.0304,
        "meta_ra_of_asc_node": 54.7348,
        "meta_arg_of_pericenter": 48.2589,
        "meta_mean_anomaly": 312.5343,
        "meta_ephemeris_type": 0,
        "meta_classification_type": "U",
        "meta_norad_cat_id": 30363,
        "meta_element_set_no": 999,
        "meta_rev_at_epoch": 96780,
        "meta_bstar": 0.0021732,
        "meta_mean_motion_dot": 4.448e-05,
        "meta_mean_motion_ddot": 0,
        "tle_line1": "1 30363U 99025ACA 25343.64455449  .00004448  00000+0  21732-2 0  9994",
        "tle_line2": "2 30363  99.0304  54.7348 0079456  48.2589 312.5343 14.16849111967807"
      },
      "geometry": {
        "type": "Point",
        "coordinates": [
          57.70326207376075,
          -14.740977162699187
        ]
      }
    },
    {
      "type": "Feature",
      "properties": {
        "norad_id": 30364,
        "name": "FENGYUN 1C DEB",
        "group": "fengyun-1c-debris",
        "lat": 69.87771709699508,
        "lon": 103.74103596684672,
        "alt_km": 1011.2538349192428,
        "timestamp": "2025-12-10T04:57:29.894292+00:00",
        "meta_object_name": "FENGYUN 1C DEB",
        "meta_object_id": "1999-025ACB",
        "meta_epoch": "2025-12-08T05:44:01.310784",
        "meta_mean_motion": 14.16943722,
        "meta_eccentricity": 0.03331866,
        "meta_inclination": 98.1364,
        "meta_ra_of_asc_node": 258.9532,
        "meta_arg_of_pericenter": 333.5102,
        "meta_mean_anomaly": 180.7922,
        "meta_ephemeris_type": 0,
        "meta_classification_type": "U",
        "meta_norad_cat_id": 30364,
        "meta_element_set_no": 999,
        "meta_rev_at_epoch": 95577,
        "meta_bstar": 0.0044562781,
        "meta_mean_motion_dot": 0.00015436,
        "meta_mean_motion_ddot": 0,
        "tle_line1": "1 30364U 99025ACB 25342.23890406  .00015436  00000+0  44563-2 0  9991",
        "tle_line2": "2 30364  98.1364 258.9532 0333186 333.5102 180.7922 14.16943722955775"
      },
      "geometry": {
        "type": "Point",
        "coordinates": [
          103.74103596684672,
          69.87771709699508
        ]
      }
    },
    {
      "type": "Feature",
      "properties": {
        "norad_id": 30365,
        "name": "FENGYUN 1C DEB",
        "group": "fengyun-1c-debris",
        "lat": -76.90409411054921,
        "lon": 19.345998991007782,
        "alt_km": 949.6617676329188,
        "timestamp": "2025-12-10T04:57:29.894303+00:00",
        "meta_object_name": "FENGYUN 1C DEB",
        "meta_object_id": "1999-025ACC",
        "meta_epoch": "2025-12-09T11:26:02.920416",
        "meta_mean_motion": 14.19225045,
        "meta_eccentricity": 0.01679095,
        "meta_inclination": 98.6189,
        "meta_ra_of_asc_node": 337.9449,
        "meta_arg_of_pericenter": 120.7815,
        "meta_mean_anomaly": 30.0039,
        "meta_ephemeris_type": 0,
        "meta_classification_type": "U",
        "meta_norad_cat_id": 30365,
        "meta_element_set_no": 999,
        "meta_rev_at_epoch": 97566,
        "meta_bstar": 0.00031704709,
        "meta_mean_motion_dot": 7.23e-06,
        "meta_mean_motion_ddot": 0,
        "tle_line1": "1 30365U 99025ACC 25343.47642269  .00000723  00000+0  31705-3 0  9999",
        "tle_line2": "2 30365  98.6189 337.9449 0167909 120.7815  30.0039 14.19225045975666"
      },
      "geometry": {
        "type": "Point",
        "coordinates": [
          19.345998991007782,
          -76.90409411054921
        ]
      }
    },
    {
      "type": "Feature",
      "properties": {
        "norad_id": 30366,
        "name": "FENGYUN 1C DEB",
        "group": "fengyun-1c-debris",
        "lat": -56.295507798037384,
        "lon": 67.99446921864143,
        "alt_km": 743.5197075685019,
        "timestamp": "2025-12-10T04:57:29.894313+00:00",
        "meta_object_name": "FENGYUN 1C DEB",
        "meta_object_id": "1999-025ACD",
        "meta_epoch": "2025-12-09T17:56:00.180384",
        "meta_mean_motion": 14.33474617,
        "meta_eccentricity": 0.0061961,
        "meta_inclination": 98.9226,
        "meta_ra_of_asc_node": 261.1436,
        "meta_arg_of_pericenter": 228.2216,
        "meta_mean_anomaly": 159.6958,
        "meta_ephemeris_type": 0,
        "meta_classification_type": "U",
        "meta_norad_cat_id": 30366,
        "meta_element_set_no": 999,
        "meta_rev_at_epoch": 98280,
        "meta_bstar": 0.00090914,
        "meta_mean_motion_dot": 2.52e-05,
        "meta_mean_motion_ddot": 0,
        "tle_line1": "1 30366U 99025ACD 25343.74722431  .00002520  00000+0  90914-3 0  9994",
        "tle_line2": "2 30366  98.9226 261.1436 0061961 228.2216 159.6958 14.33474617982805"
      },
      "geometry": {
        "type": "Point",
        "coordinates": [
          67.99446921864143,
          -56.295507798037384
        ]
      }
    }
  ]
}